ZORKIY-2M-VPE           
1 67252U 25313E   26018.59046428  .00008086  00000+0  35962-3 0  9990
2 67252  97.4111  95.7353 0011393 145.1689 215.0295 15.21698497  3201
AIST-2T 1               
1 67253U 25313F   26018.59258338  .00049605  00000+0  49467-3 0  9993
2 67253  97.1028  95.9522 0010591 162.3069 197.8562 15.65450132  3279
AIST-2T 2               
1 67254U 25313G   26018.59428114  .00042497  00000+0  43129-3 0  9996
2 67254  97.1027  95.9494 0010199 164.8158 195.3411 15.65043275  3268
2025-313H               
1 67255U 25313H   26018.59329203  .00002365  00000+0  16829-3 0  9993
2 67255  97.3090  94.8721 0091500 123.9686 237.0278 15.02183657  3163
SITRO-AIS-57            
1 67256U 25313J   26018.48331424  .00010497  00000+0  48922-3 0  9994
2 67256  97.4103  95.5684 0017193 163.5713 196.6083 15.19936921  3187
SITRO-AIS-59            
1 67257U 25313K   26018.48284445  .00009872  00000+0  46007-3 0  9992
2 67257  97.4110  95.5707 0016930 165.6043 194.5678 15.19961319  3185
SITRO-AIS-58            
1 67258U 25313L   26018.48239777  .00009834  00000+0  45776-3 0  9991
2 67258  97.4105  95.5696 0016879 164.8604 195.3139 15.20003514  3180
2025-313M               
1 67259U 25313M   26018.61068592  .00012381  00000+0  57032-3 0  9991
2 67259  97.4148  95.7264 0016087 162.9994 197.1784 15.20313531  3205
SITRO-AIS-60            
1 67260U 25313N   26018.48075099  .00008089  00000+0  37644-3 0  9995
2 67260  97.4114  95.5742 0016281 165.0483 195.1236 15.20079786  3180
2025-313P               
1 67261U 25313P   26018.60891879  .00016336  00000+0  74645-3 0  9998
2 67261  97.4148  95.7292 0015846 163.3256 196.8503 15.20532149  3200
2025-313Q               
1 67262U 25313Q   26018.54480267  .00010993  00000+0  50732-3 0  9991
2 67262  97.4116  95.6417 0015942 165.3958 194.7742 15.20284528  3197
DCS-1                   
1 67263U 25313R   26018.61101673  .00009707  00000+0  44916-3 0  9999
2 67263  97.4128  95.7209 0015927 164.1264 196.0474 15.20226674  3208
