CCSDS_OMM_VERS = 2.0
CREATION_DATE  = 
ORIGINATOR     = 

OBJECT_NAME    = ZORKIY-2M-VPE
OBJECT_ID      = 2025-313E
CENTER_NAME    = EARTH
REF_FRAME      = TEME
TIME_SYSTEM    = UTC
MEAN_ELEMENT_THEORY = SGP/SGP4

EPOCH          = 2026-01-18T14:10:16.113792
MEAN_MOTION    = 15.21698497
ECCENTRICITY   = .00113933
INCLINATION    = 97.4111
RA_OF_ASC_NODE = 95.7353
ARG_OF_PERICENTER = 145.1689
MEAN_ANOMALY   = 215.0295

EPHEMERIS_TYPE = 0
CLASSIFICATION_TYPE = U
NORAD_CAT_ID   = 67252
ELEMENT_SET_NO = 999
REV_AT_EPOCH   = 320
BSTAR          = .35961955E-3
MEAN_MOTION_DOT = .8086E-4
MEAN_MOTION_DDOT = 0

CCSDS_OMM_VERS = 2.0
CREATION_DATE  = 
ORIGINATOR     = 

OBJECT_NAME    = AIST-2T 1
OBJECT_ID      = 2025-313F
CENTER_NAME    = EARTH
REF_FRAME      = TEME
TIME_SYSTEM    = UTC
MEAN_ELEMENT_THEORY = SGP/SGP4

EPOCH          = 2026-01-18T14:13:19.204032
MEAN_MOTION    = 15.65450132
ECCENTRICITY   = .00105915
INCLINATION    = 97.1028
RA_OF_ASC_NODE = 95.9522
ARG_OF_PERICENTER = 162.3069
MEAN_ANOMALY   = 197.8562

EPHEMERIS_TYPE = 0
CLASSIFICATION_TYPE = U
NORAD_CAT_ID   = 67253
ELEMENT_SET_NO = 999
REV_AT_EPOCH   = 327
BSTAR          = .49466778E-3
MEAN_MOTION_DOT = .49605E-3
MEAN_MOTION_DDOT = 0

CCSDS_OMM_VERS = 2.0
CREATION_DATE  = 
ORIGINATOR     = 

OBJECT_NAME    = AIST-2T 2
OBJECT_ID      = 2025-313G
CENTER_NAME    = EARTH
REF_FRAME      = TEME
TIME_SYSTEM    = UTC
MEAN_ELEMENT_THEORY = SGP/SGP4

EPOCH          = 2026-01-18T14:15:45.890496
MEAN_MOTION    = 15.65043275
ECCENTRICITY   = .00101991
INCLINATION    = 97.1027
RA_OF_ASC_NODE = 95.9494
ARG_OF_PERICENTER = 164.8158
MEAN_ANOMALY   = 195.3411

EPHEMERIS_TYPE = 0
CLASSIFICATION_TYPE = U
NORAD_CAT_ID   = 67254
ELEMENT_SET_NO = 999
REV_AT_EPOCH   = 326
BSTAR          = .43128615E-3
MEAN_MOTION_DOT = .42497E-3
MEAN_MOTION_DDOT = 0

CCSDS_OMM_VERS = 2.0
CREATION_DATE  = 
ORIGINATOR     = 

OBJECT_NAME    = 2025-313H
OBJECT_ID      = 2025-313H
CENTER_NAME    = EARTH
REF_FRAME      = TEME
TIME_SYSTEM    = UTC
MEAN_ELEMENT_THEORY = SGP/SGP4

EPOCH          = 2026-01-18T14:14:20.431392
MEAN_MOTION    = 15.02183657
ECCENTRICITY   = .00915
INCLINATION    = 97.3090
RA_OF_ASC_NODE = 94.8721
ARG_OF_PERICENTER = 123.9686
MEAN_ANOMALY   = 237.0278

EPHEMERIS_TYPE = 0
CLASSIFICATION_TYPE = U
NORAD_CAT_ID   = 67255
ELEMENT_SET_NO = 999
REV_AT_EPOCH   = 316
BSTAR          = .1682934E-3
MEAN_MOTION_DOT = .2365E-4
MEAN_MOTION_DDOT = 0

CCSDS_OMM_VERS = 2.0
CREATION_DATE  = 
ORIGINATOR     = 

OBJECT_NAME    = SITRO-AIS-57
OBJECT_ID      = 2025-313J
CENTER_NAME    = EARTH
REF_FRAME      = TEME
TIME_SYSTEM    = UTC
MEAN_ELEMENT_THEORY = SGP/SGP4

EPOCH          = 2026-01-18T11:35:58.350336
MEAN_MOTION    = 15.19936921
ECCENTRICITY   = .00171938
INCLINATION    = 97.4103
RA_OF_ASC_NODE = 95.5684
ARG_OF_PERICENTER = 163.5713
MEAN_ANOMALY   = 196.6083

EPHEMERIS_TYPE = 0
CLASSIFICATION_TYPE = U
NORAD_CAT_ID   = 67256
ELEMENT_SET_NO = 999
REV_AT_EPOCH   = 318
BSTAR          = .48921631E-3
MEAN_MOTION_DOT = .10497E-3
MEAN_MOTION_DDOT = 0

CCSDS_OMM_VERS = 2.0
CREATION_DATE  = 
ORIGINATOR     = 

OBJECT_NAME    = SITRO-AIS-59
OBJECT_ID      = 2025-313K
CENTER_NAME    = EARTH
REF_FRAME      = TEME
TIME_SYSTEM    = UTC
MEAN_ELEMENT_THEORY = SGP/SGP4

EPOCH          = 2026-01-18T11:35:17.760480
MEAN_MOTION    = 15.19961319
ECCENTRICITY   = .00169309
INCLINATION    = 97.4110
RA_OF_ASC_NODE = 95.5707
ARG_OF_PERICENTER = 165.6043
MEAN_ANOMALY   = 194.5678

EPHEMERIS_TYPE = 0
CLASSIFICATION_TYPE = U
NORAD_CAT_ID   = 67257
ELEMENT_SET_NO = 999
REV_AT_EPOCH   = 318
BSTAR          = .46007017E-3
MEAN_MOTION_DOT = .9872E-4
MEAN_MOTION_DDOT = 0

CCSDS_OMM_VERS = 2.0
CREATION_DATE  = 
ORIGINATOR     = 

OBJECT_NAME    = SITRO-AIS-58
OBJECT_ID      = 2025-313L
CENTER_NAME    = EARTH
REF_FRAME      = TEME
TIME_SYSTEM    = UTC
MEAN_ELEMENT_THEORY = SGP/SGP4

EPOCH          = 2026-01-18T11:34:39.167328
MEAN_MOTION    = 15.20003514
ECCENTRICITY   = .00168796
INCLINATION    = 97.4105
RA_OF_ASC_NODE = 95.5696
ARG_OF_PERICENTER = 164.8604
MEAN_ANOMALY   = 195.3139

EPHEMERIS_TYPE = 0
CLASSIFICATION_TYPE = U
NORAD_CAT_ID   = 67258
ELEMENT_SET_NO = 999
REV_AT_EPOCH   = 318
BSTAR          = .4577587E-3
MEAN_MOTION_DOT = .9834E-4
MEAN_MOTION_DDOT = 0

CCSDS_OMM_VERS = 2.0
CREATION_DATE  = 
ORIGINATOR     = 

OBJECT_NAME    = 2025-313M
OBJECT_ID      = 2025-313M
CENTER_NAME    = EARTH
REF_FRAME      = TEME
TIME_SYSTEM    = UTC
MEAN_ELEMENT_THEORY = SGP/SGP4

EPOCH          = 2026-01-18T14:39:23.263488
MEAN_MOTION    = 15.20313531
ECCENTRICITY   = .00160879
INCLINATION    = 97.4148
RA_OF_ASC_NODE = 95.7264
ARG_OF_PERICENTER = 162.9994
MEAN_ANOMALY   = 197.1784

EPHEMERIS_TYPE = 0
CLASSIFICATION_TYPE = U
NORAD_CAT_ID   = 67259
ELEMENT_SET_NO = 999
REV_AT_EPOCH   = 320
BSTAR          = .57032074E-3
MEAN_MOTION_DOT = .12381E-3
MEAN_MOTION_DDOT = 0

CCSDS_OMM_VERS = 2.0
CREATION_DATE  = 
ORIGINATOR     = 

OBJECT_NAME    = SITRO-AIS-60
OBJECT_ID      = 2025-313N
CENTER_NAME    = EARTH
REF_FRAME      = TEME
TIME_SYSTEM    = UTC
MEAN_ELEMENT_THEORY = SGP/SGP4

EPOCH          = 2026-01-18T11:32:16.885536
MEAN_MOTION    = 15.20079786
ECCENTRICITY   = .00162816
INCLINATION    = 97.4114
RA_OF_ASC_NODE = 95.5742
ARG_OF_PERICENTER = 165.0483
MEAN_ANOMALY   = 195.1236

EPHEMERIS_TYPE = 0
CLASSIFICATION_TYPE = U
NORAD_CAT_ID   = 67260
ELEMENT_SET_NO = 999
REV_AT_EPOCH   = 318
BSTAR          = .37643821E-3
MEAN_MOTION_DOT = .8089E-4
MEAN_MOTION_DDOT = 0

CCSDS_OMM_VERS = 2.0
CREATION_DATE  = 
ORIGINATOR     = 

OBJECT_NAME    = 2025-313P
OBJECT_ID      = 2025-313P
CENTER_NAME    = EARTH
REF_FRAME      = TEME
TIME_SYSTEM    = UTC
MEAN_ELEMENT_THEORY = SGP/SGP4

EPOCH          = 2026-01-18T14:36:50.583456
MEAN_MOTION    = 15.20532149
ECCENTRICITY   = .00158464
INCLINATION    = 97.4148
RA_OF_ASC_NODE = 95.7292
ARG_OF_PERICENTER = 163.3256
MEAN_ANOMALY   = 196.8503

EPHEMERIS_TYPE = 0
CLASSIFICATION_TYPE = U
NORAD_CAT_ID   = 67261
ELEMENT_SET_NO = 999
REV_AT_EPOCH   = 320
BSTAR          = .74645464E-3
MEAN_MOTION_DOT = .16336E-3
MEAN_MOTION_DDOT = 0

CCSDS_OMM_VERS = 2.0
CREATION_DATE  = 
ORIGINATOR     = 

OBJECT_NAME    = 2025-313Q
OBJECT_ID      = 2025-313Q
CENTER_NAME    = EARTH
REF_FRAME      = TEME
TIME_SYSTEM    = UTC
MEAN_ELEMENT_THEORY = SGP/SGP4

EPOCH          = 2026-01-18T13:04:30.950688
MEAN_MOTION    = 15.20284528
ECCENTRICITY   = .00159426
INCLINATION    = 97.4116
RA_OF_ASC_NODE = 95.6417
ARG_OF_PERICENTER = 165.3958
MEAN_ANOMALY   = 194.7742

EPHEMERIS_TYPE = 0
CLASSIFICATION_TYPE = U
NORAD_CAT_ID   = 67262
ELEMENT_SET_NO = 999
REV_AT_EPOCH   = 319
BSTAR          = .50732356E-3
MEAN_MOTION_DOT = .10993E-3
MEAN_MOTION_DDOT = 0

CCSDS_OMM_VERS = 2.0
CREATION_DATE  = 
ORIGINATOR     = 

OBJECT_NAME    = DCS-1
OBJECT_ID      = 2025-313R
CENTER_NAME    = EARTH
REF_FRAME      = TEME
TIME_SYSTEM    = UTC
MEAN_ELEMENT_THEORY = SGP/SGP4

EPOCH          = 2026-01-18T14:39:51.845472
MEAN_MOTION    = 15.20226674
ECCENTRICITY   = .00159271
INCLINATION    = 97.4128
RA_OF_ASC_NODE = 95.7209
ARG_OF_PERICENTER = 164.1264
MEAN_ANOMALY   = 196.0474

EPHEMERIS_TYPE = 0
CLASSIFICATION_TYPE = U
NORAD_CAT_ID   = 67263
ELEMENT_SET_NO = 999
REV_AT_EPOCH   = 320
BSTAR          = .44915565E-3
MEAN_MOTION_DOT = .9707E-4
MEAN_MOTION_DDOT = 0

